{
  "type": "FeatureCollection",
  "features": [
    {
      "type": "Feature",
      "properties": {
        "norad_id": 24946,
        "name": "IRIDIUM 33",
        "group": "iridium-33-debris",
        "lat": 36.960404725021554,
        "lon": 64.72365403802998,
        "alt_km": 775.089175993443,
        "timestamp": "2025-12-27T13:34:49.680308+00:00",
        "meta_object_name": "IRIDIUM 33",
        "meta_object_id": "1997-051C",
        "meta_epoch": "2025-12-27T06:42:51.382368",
        "meta_mean_motion": 14.35047449,
        "meta_eccentricity": 0.00087294,
        "meta_inclination": 86.3857,
        "meta_ra_of_asc_node": 62.1177,
        "meta_arg_of_pericenter": 154.1207,
        "meta_mean_anomaly": 206.0427,
        "meta_ephemeris_type": 0,
        "meta_classification_type": "U",
        "meta_norad_cat_id": 24946,
        "meta_element_set_no": 999,
        "meta_rev_at_epoch": 48043,
        "meta_bstar": 0.00012419962,
        "meta_mean_motion_dot": 3.74e-06,
        "meta_mean_motion_ddot": 0,
        "tle_line1": "1 24946U 97051C   25361.27976137  .00000374  00000+0  12420-3 0  9991",
        "tle_line2": "2 24946  86.3857  62.1177 0008729 154.1207 206.0427 14.35047449480435"
      },
      "geometry": {
        "type": "Point",
        "coordinates": [
          64.72365403802998,
          36.960404725021554
        ]
      }
    },
    {
      "type": "Feature",
      "properties": {
        "norad_id": 33773,
        "name": "IRIDIUM 33 DEB",
        "group": "iridium-33-debris",
        "lat": 72.37268954424553,
        "lon": 65.73498636082545,
        "alt_km": 732.628588325656,
        "timestamp": "2025-12-27T13:34:49.680334+00:00",
        "meta_object_name": "IRIDIUM 33 DEB",
        "meta_object_id": "1997-051L",
        "meta_epoch": "2025-12-27T04:55:31.304352",
        "meta_mean_motion": 14.43287164,
        "meta_eccentricity": 0.00133637,
        "meta_inclination": 86.3996,
        "meta_ra_of_asc_node": 54.4587,
        "meta_arg_of_pericenter": 105.064,
        "meta_mean_anomaly": 255.2041,
        "meta_ephemeris_type": 0,
        "meta_classification_type": "U",
        "meta_norad_cat_id": 33773,
        "meta_element_set_no": 999,
        "meta_rev_at_epoch": 88556,
        "meta_bstar": 0.00032311152,
        "meta_mean_motion_dot": 1.109e-05,
        "meta_mean_motion_ddot": 0,
        "tle_line1": "1 33773U 97051L   25361.20522343  .00001109  00000+0  32311-3 0  9996",
        "tle_line2": "2 33773  86.3996  54.4587 0013363 105.0640 255.2041 14.43287164885562"
      },
      "geometry": {
        "type": "Point",
        "coordinates": [
          65.73498636082545,
          72.37268954424553
        ]
      }
    },
    {
      "type": "Feature",
      "properties": {
        "norad_id": 33775,
        "name": "IRIDIUM 33 DEB",
        "group": "iridium-33-debris",
        "lat": 60.664716856685736,
        "lon": 49.72264653787398,
        "alt_km": 740.6297135605346,
        "timestamp": "2025-12-27T13:34:49.680349+00:00",
        "meta_object_name": "IRIDIUM 33 DEB",
        "meta_object_id": "1997-051N",
        "meta_epoch": "2025-12-27T03:33:14.523264",
        "meta_mean_motion": 14.41499559,
        "meta_eccentricity": 0.00153981,
        "meta_inclination": 86.3623,
        "meta_ra_of_asc_node": 43.4012,
        "meta_arg_of_pericenter": 112.022,
        "meta_mean_anomaly": 302.4506,
        "meta_ephemeris_type": 0,
        "meta_classification_type": "U",
        "meta_norad_cat_id": 33775,
        "meta_element_set_no": 999,
        "meta_rev_at_epoch": 88348,
        "meta_bstar": 0.00036781053,
        "meta_mean_motion_dot": 1.215e-05,
        "meta_mean_motion_ddot": 0,
        "tle_line1": "1 33775U 97051N   25361.14808476  .00001215  00000+0  36781-3 0  9998",
        "tle_line2": "2 33775  86.3623  43.4012 0015398 112.0220 302.4506 14.41499559883485"
      },
      "geometry": {
        "type": "Point",
        "coordinates": [
          49.72264653787398,
          60.664716856685736
        ]
      }
    },
    {
      "type": "Feature",
      "properties": {
        "norad_id": 33776,
        "name": "IRIDIUM 33 DEB",
        "group": "iridium-33-debris",
        "lat": 61.57206292299099,
        "lon": -112.1234507647989,
        "alt_km": 748.0793971755056,
        "timestamp": "2025-12-27T13:34:49.680361+00:00",
        "meta_object_name": "IRIDIUM 33 DEB",
        "meta_object_id": "1997-051P",
        "meta_epoch": "2025-12-27T06:39:04.912416",
        "meta_mean_motion": 14.38259855,
        "meta_eccentricity": 0.00159224,
        "meta_inclination": 86.403,
        "meta_ra_of_asc_node": 74.6707,
        "meta_arg_of_pericenter": 144.617,
        "meta_mean_anomaly": 279.6987,
        "meta_ephemeris_type": 0,
        "meta_classification_type": "U",
        "meta_norad_cat_id": 33776,
        "meta_element_set_no": 999,
        "meta_rev_at_epoch": 88291,
        "meta_bstar": 0.00028580753,
        "meta_mean_motion_dot": 8.89e-06,
        "meta_mean_motion_ddot": 0,
        "tle_line1": "1 33776U 97051P   25361.27714019  .00000889  00000+0  28581-3 0  9997",
        "tle_line2": "2 33776  86.4030  74.6707 0015922 144.6170 279.6987 14.38259855882918"
      },
      "geometry": {
        "type": "Point",
        "coordinates": [
          -112.1234507647989,
          61.57206292299099
        ]
      }
    },
    {
      "type": "Feature",
      "properties": {
        "norad_id": 33777,
        "name": "IRIDIUM 33 DEB",
        "group": "iridium-33-debris",
        "lat": 65.59864132501147,
        "lon": -159.27497519857712,
        "alt_km": 699.4576785466861,
        "timestamp": "2025-12-27T13:34:49.680372+00:00",
        "meta_object_name": "IRIDIUM 33 DEB",
        "meta_object_id": "1997-051Q",
        "meta_epoch": "2025-12-27T03:09:33.576768",
        "meta_mean_motion": 14.55714012,
        "meta_eccentricity": 0.00065474,
        "meta_inclination": 86.3776,
        "meta_ra_of_asc_node": 28.9411,
        "meta_arg_of_pericenter": 189.6871,
        "meta_mean_anomaly": 170.4212,
        "meta_ephemeris_type": 0,
        "meta_classification_type": "U",
        "meta_norad_cat_id": 33777,
        "meta_element_set_no": 999,
        "meta_rev_at_epoch": 88743,
        "meta_bstar": 0.00095764844,
        "meta_mean_motion_dot": 4.207e-05,
        "meta_mean_motion_ddot": 0,
        "tle_line1": "1 33777U 97051Q   25361.13163862  .00004207  00000+0  95765-3 0  9993",
        "tle_line2": "2 33777  86.3776  28.9411 0006547 189.6871 170.4212 14.55714012887430"
      },
      "geometry": {
        "type": "Point",
        "coordinates": [
          -159.27497519857712,
          65.59864132501147
        ]
      }
    },
    {
      "type": "Feature",
      "properties": {
        "norad_id": 33850,
        "name": "IRIDIUM 33 DEB",
        "group": "iridium-33-debris",
        "lat": 77.5579714725962,
        "lon": 40.66384139644384,
        "alt_km": 736.6640959586102,
        "timestamp": "2025-12-27T13:34:49.680384+00:00",
        "meta_object_name": "IRIDIUM 33 DEB",
        "meta_object_id": "1997-051T",
        "meta_epoch": "2025-12-27T03:33:49.339872",
        "meta_mean_motion": 14.42184716,
        "meta_eccentricity": 0.00133741,
        "meta_inclination": 86.3409,
        "meta_ra_of_asc_node": 23.9831,
        "meta_arg_of_pericenter": 118.3203,
        "meta_mean_anomaly": 314.3735,
        "meta_ephemeris_type": 0,
        "meta_classification_type": "U",
        "meta_norad_cat_id": 33850,
        "meta_element_set_no": 999,
        "meta_rev_at_epoch": 88360,
        "meta_bstar": 0.00050244153,
        "meta_mean_motion_dot": 1.675e-05,
        "meta_mean_motion_ddot": 0,
        "tle_line1": "1 33850U 97051T   25361.14848773  .00001675  00000+0  50244-3 0  9996",
        "tle_line2": "2 33850  86.3409  23.9831 0013374 118.3203 314.3735 14.42184716883602"
      },
      "geometry": {
        "type": "Point",
        "coordinates": [
          40.66384139644384,
          77.5579714725962
        ]
      }
    },
    {
      "type": "Feature",
      "properties": {
        "norad_id": 33853,
        "name": "IRIDIUM 33 DEB",
        "group": "iridium-33-debris",
        "lat": -32.17409343978262,
        "lon": -19.213396983338654,
        "alt_km": 1013.411483397711,
        "timestamp": "2025-12-27T13:34:49.680395+00:00",
        "meta_object_name": "IRIDIUM 33 DEB",
        "meta_object_id": "1997-051W",
        "meta_epoch": "2025-12-26T22:39:28.276128",
        "meta_mean_motion": 13.99129868,
        "meta_eccentricity": 0.0207854,
        "meta_inclination": 86,
        "meta_ra_of_asc_node": 343.582,
        "meta_arg_of_pericenter": 192.009,
        "meta_mean_anomaly": 244.3161,
        "meta_ephemeris_type": 0,
        "meta_classification_type": "U",
        "meta_norad_cat_id": 33853,
        "meta_element_set_no": 999,
        "meta_rev_at_epoch": 85544,
        "meta_bstar": 0.0013824,
        "meta_mean_motion_dot": 2.427e-05,
        "meta_mean_motion_ddot": 0,
        "tle_line1": "1 33853U 97051W   25360.94407727  .00002427  00000+0  13824-2 0  9994",
        "tle_line2": "2 33853  86.0000 343.5820 0207854 192.0090 244.3161 13.99129868855443"
      },
      "geometry": {
        "type": "Point",
        "coordinates": [
          -19.213396983338654,
          -32.17409343978262
        ]
      }
    }
  ]
}